GLOBALSTAR M070         
1 32264U 07048B   24154.93427517 -.00000059  00000+0  25010-3 0  9995
2 32264  51.9729 203.8391 0000126  27.5798  29.2653 12.62293862765775
GLOBALSTAR M066         
1 32265U 07048C   24153.96038508 -.00000073  00000+0  16959-3 0  9994
2 32265  51.9689  68.7775 0000635  52.5765  73.6692 12.62263112767911
GLOBALSTAR M079         
1 37188U 10054A   24154.59147218 -.00000087  00000+0  91299-4 0  9999
2 37188  52.0024 215.3371 0000495 163.5671   0.9234 12.62270701628519
GLOBALSTAR M074         
1 37189U 10054B   24154.36474900 -.00000084  00000+0  10893-3 0  9993
2 37189  52.0000 215.4094 0000276 144.4386 308.4594 12.62269400629098
GLOBALSTAR M076         
1 37190U 10054C   24154.47206663 -.00000079  00000+0  13969-3 0  9997
2 37190  52.0012 215.2167 0000496 206.5450 255.9162 12.62261875628823
GLOBALSTAR M077         
1 37191U 10054D   24154.92754410 -.00000085  00000+0  10744-3 0  9991
2 37191  52.0044 170.5781 0000104 351.5420  80.5650 12.62273750629255
GLOBALSTAR M067         
1 32263U 07048A   24154.17591086 -.00000053  00000+0  33090-3 0  9994
2 32263  51.9742  67.8519 0000363 292.6339 233.3037 12.40646454762314
GLOBALSTAR M068         
1 32266U 07048D   24154.79874275 -.00000052  00000+0  28986-3 0  9996
2 32266  51.9906  18.7272 0001558  50.0298  73.6824 12.62790958769620
